[
    {
        "Altitude(m)": 559886.482905595,
        "Argument of Periapsis(deg)": 0.033114955553567506,
        "Eccentricity": 0.0,
        "Inclination(deg)": 53.0,
        "Latitude(deg)": 53.08911559608592,
        "Longitude(deg)": -95.14944729813735,
        "Mean Anomaly(deg)": -267.72373566211206,
        "RAAN(deg)": 274.9507168426401,
        "Satellite Name": "Starlink Shell 1 1212",
        "Satellite Number": 1212,
        "Semi-Major Axis(m)": 6931778.249405717,
        "Time(s)": 950
    },
    {
        "Altitude(m)": 559877.9199897125,
        "Argument of Periapsis(deg)": 0.03346353403307874,
        "Eccentricity": 0.0,
        "Inclination(deg)": 53.0,
        "Latitude(deg)": 53.05106727949614,
        "Longitude(deg)": -94.15227465197334,
        "Mean Anomaly(deg)": -267.09690445855534,
        "RAAN(deg)": 274.9501980725626,
        "Satellite Name": "Starlink Shell 1 1212",
        "Satellite Number": 1212,
        "Semi-Major Axis(m)": 6931778.249405717,
        "Time(s)": 960
    },
    {
        "Altitude(m)": 559867.3015937579,
        "Argument of Periapsis(deg)": 0.03381211251258998,
        "Eccentricity": 0.0,
        "Inclination(deg)": 53.0,
        "Latitude(deg)": 53.00397651914605,
        "Longitude(deg)": -93.1571449751173,
        "Mean Anomaly(deg)": -266.4700732549987,
        "RAAN(deg)": 274.9496793024851,
        "Satellite Name": "Starlink Shell 1 1212",
        "Satellite Number": 1212,
        "Semi-Major Axis(m)": 6931778.249405717,
        "Time(s)": 970
    },
    {
        "Altitude(m)": 559854.634125677,
        "Argument of Periapsis(deg)": 0.034160690992101214,
        "Eccentricity": 0.0,
        "Inclination(deg)": 53.0,
        "Latitude(deg)": 52.94787812236705,
        "Longitude(deg)": -92.16448193520826,
        "Mean Anomaly(deg)": -265.8432420514419,
        "RAAN(deg)": 274.94916053240763,
        "Satellite Name": "Starlink Shell 1 1212",
        "Satellite Number": 1212,
        "Semi-Major Axis(m)": 6931778.249405717,
        "Time(s)": 980
    },
    {
        "Altitude(m)": 559839.9252245377,
        "Argument of Periapsis(deg)": 0.034509269471612446,
        "Eccentricity": 0.0,
        "Inclination(deg)": 53.0,
        "Latitude(deg)": 52.882813325493075,
        "Longitude(deg)": -91.17470143355627,
        "Mean Anomaly(deg)": -265.2164108478852,
        "RAAN(deg)": 274.9486417623302,
        "Satellite Name": "Starlink Shell 1 1212",
        "Satellite Number": 1212,
        "Semi-Major Axis(m)": 6931778.249405717,
        "Time(s)": 990
    }
]